NORAD_CAT_ID,OBJECT_NAME,OBJECT_TYPE,EPOCH,MEAN_MOTION,ECCENTRICITY,INCLINATION,RA_OF_ASC_NODE,ARG_OF_PERICENTER,MEAN_ANOMALY,BSTAR,MEAN_MOTION_DOT,MEAN_MOTION_DDOT,TLE_LINE0,TLE_LINE1,TLE_LINE2,SEMIMAJOR_AXIS,PERIOD,APOGEE,PERIGEE,DECAYED
53242.0,STARLINK-4056,PAYLOAD,2022-08-08 12:48:13,15.73328849,0.0007726,53.2192,329.1156,286.003,74.0139,0.0007012,0.00099663,0.0,0 STARLINK-4056,1 53242U 22086A   22220.53349163  .00099663  00000-0  70120-3 0  9992,2 53242  53.2192 329.1156 0007726 286.0030  74.0139 15.73328849  3498,6727.528,91.526,354.591,344.195,0.0
53242.0,STARLINK-4056,PAYLOAD,2022-08-08 14:00:01,15.732838,0.0008005,53.2189,328.8705,285.3391,357.2167,-0.00045466,-0.00064318,0.0,0 STARLINK-4056,1 53242U 22086A   22220.58335648 -.00064318  00000-0 -45466-3 0  9996,2 53242  53.2189 328.8705 0008005 285.3391 357.2167 15.73283800  2991,6727.656,91.528,354.907,344.136,0.0
53242.0,STARLINK-4056,PAYLOAD,2022-08-08 17:22:40,15.73276133,0.0007878999999999,53.2194,328.1729,288.1152,71.90100000000002,0.00027249,0.00037978,0.0,0 STARLINK-4056,1 53242U 22086A   22220.72407589  .00037978  00000-0  27249-3 0  9995,2 53242  53.2194 328.1729 0007879 288.1152  71.9010 15.73276133  3012,6727.678000000001,91.529,354.844,344.242,0.0
53242.0,STARLINK-4056,PAYLOAD,2022-08-08 22:00:00,15.7327305,0.0008158,53.2192,327.2206,284.5523,86.9449,-0.0009232,-0.00128934,0.0,0 STARLINK-4056,1 53242U 22086A   22220.91667824 -.00128934  00000-0 -92320-3 0  9993,2 53242  53.2192 327.2206 0008158 284.5523  86.9449 15.73273050  1300,6727.687,91.529,355.04,344.06300000000016,0.0
53242.0,STARLINK-4056,PAYLOAD,2022-08-09 04:00:00,15.73141686,0.000815,53.2194,325.9819,282.6218,65.612,0.00040901,0.00057127,0.0,0 STARLINK-4056,1 53242U 22086A   22221.16667824  .00057127  00000-0  40901-3 0  9992,2 53242  53.2194 325.9819 0008150 282.6218  65.6120 15.73141686  3085,6728.061,91.537,355.41,344.4430000000001,0.0
53242.0,STARLINK-4056,PAYLOAD,2022-08-09 14:00:01,15.73201172,0.0008182,53.2195,323.9222,284.5464,264.7977,-0.00086103,-0.00120049,0.0,0 STARLINK-4056,1 53242U 22086A   22221.58334491 -.00120049  00000-0 -86103-3 0  9999,2 53242  53.2195 323.9222 0008182 284.5464 264.7977 15.73201172  1303,6727.892,91.533,355.26199999999994,344.25199999999984,0.0
53242.0,STARLINK-4056,PAYLOAD,2022-08-09 22:00:00,15.73179453,0.0008283999999999,53.2192,322.2724,285.5113,352.6691,9.7999e-05,0.00013159,0.0,0 STARLINK-4056,1 53242U 22086A   22221.91667824  .00013159  00000-0  97999-4 0  9992,2 53242  53.2192 322.2724 0008284 285.5113 352.6691 15.73179453  3201,6727.954000000002,91.534,355.392,344.245,0.0
53242.0,STARLINK-4056,PAYLOAD,2022-08-10 14:00:01,15.73243882,0.0008285,53.2193,318.9747,287.084,168.9366,-0.00059645,-0.0008386,0.0,0 STARLINK-4056,1 53242U 22086A   22222.58334491 -.00083860  00000-0 -59645-3 0  9990,2 53242  53.2193 318.9747 0008285 287.0840 168.9366 15.73243882  1308,6727.77,91.531,355.209,344.061,0.0
53242.0,STARLINK-4056,PAYLOAD,2022-08-10 22:00:00,15.73198602,0.0008395,53.2194,317.3245,286.6090000000001,258.3614,-0.00049326,-0.00069446,0.0,0 STARLINK-4056,1 53242U 22086A   22222.91667824 -.00069446  00000-0 -49326-3 0  9995,2 53242  53.2194 317.3245 0008395 286.6090 258.3614 15.73198602  1308,6727.899,91.533,355.412,344.116,0.0
53242.0,STARLINK-4056,PAYLOAD,2022-08-11 06:00:02,15.73153468,0.0008327,53.2198,315.6739,286.3872,347.5387,0.00047968,0.00067227,0.0,0 STARLINK-4056,1 53242U 22086A   22223.25002315  .00067227  00000-0  47968-3 0  9994,2 53242  53.2198 315.6739 0008327 286.3872 347.5387 15.73153468  3414,6728.028,91.536,355.495,344.29,0.0
53242.0,STARLINK-4056,PAYLOAD,2022-08-11 14:00:01,15.73181473,0.0008357999999999,53.2197,314.0269,289.4749,73.2797,0.00024321,0.00033681,0.0,0 STARLINK-4056,1 53242U 22086A   22223.58334491  .00033681  00000-0  24321-3 0  9998,2 53242  53.2197 314.0269 0008358 289.4749  73.2797 15.73181473  1306,6727.948,91.534,355.436,344.19,0.0
53242.0,STARLINK-4056,PAYLOAD,2022-08-11 22:00:00,15.73249319,0.000842,53.2192,312.3765,289.5654,162.1198,-0.00060768,-0.00085438,0.0,0 STARLINK-4056,1 53242U 22086A   22223.91667824 -.00085438  00000-0 -60768-3 0  9998,2 53242  53.2192 312.3765 0008420 289.5654 162.1198 15.73249319  3522,6727.755,91.53,355.284,343.955,0.0
53242.0,STARLINK-4056,PAYLOAD,2022-08-12 04:00:00,15.73168845,0.0008362,53.2191,311.1385,288.7475,139.6653,0.00061366,0.00086434,0.0,0 STARLINK-4056,1 53242U 22086A   22224.16667824  .00086434  00000-0  61366-3 0  9996,2 53242  53.2191 311.1385 0008362 288.7475 139.6653 15.73168845  3566,6727.984,91.535,355.475,344.223,0.0
53242.0,STARLINK-4056,PAYLOAD,2022-08-12 14:00:01,15.73255068,0.0008425,53.219,309.0792,291.439,338.1521,-8.858799999999999e-05,-0.00013103,0.0,0 STARLINK-4056,1 53242U 22086A   22224.58334491 -.00013103  00000-0 -88588-4 0  9994,2 53242  53.2190 309.0792 0008425 291.4390 338.1521 15.73255068  1304,6727.738,91.53,355.271,343.935,0.0
53242.0,STARLINK-4056,PAYLOAD,2022-08-12 20:00:01,15.73278722,0.0008457,53.2188,307.8413,290.9051,315.4867,-0.00079918,-0.00111963,0.0,0 STARLINK-4056,1 53242U 22086A   22224.83335648 -.00111963  00000-0 -79918-3 0  9996,2 53242  53.2188 307.8413 0008457 290.9051 315.4867 15.73278722  3664,6727.670999999999,91.529,355.225,343.846,0.0
53242.0,STARLINK-4056,PAYLOAD,2022-08-12 22:00:01,15.7325706,0.0008435,53.219,307.4284,290.2111,68.4335,-0.00070261,-0.0009857,0.0,0 STARLINK-4056,1 53242U 22086A   22224.91668981 -.00098570  00000-0 -70261-3 0  9994,2 53242  53.2190 307.4284 0008435 290.2111  68.4335 15.73257060  1301,6727.732,91.53,355.272,343.923,0.0
53242.0,STARLINK-4056,PAYLOAD,2022-08-13 14:00:01,15.73123385,0.0008468999999999,53.2191,304.1309,291.7298,244.6805,0.00040358,0.00056319,0.0,0 STARLINK-4056,1 53242U 22086A   22225.58334491  .00056319  00000-0  40358-3 0  9991,2 53242  53.2191 304.1309 0008469 291.7298 244.6805 15.73123385  3789,6728.114000000001,91.538,355.677,344.281,0.0
53242.0,STARLINK-4056,PAYLOAD,2022-08-13 22:00:00,15.73176102,0.0008479,53.2187,302.4803,292.0693,333.1983,3.2938e-05,3.998e-05,0.0,0 STARLINK-4056,1 53242U 22086A   22225.91667824  .00003998  00000-0  32938-4 0  9998,2 53242  53.2187 302.4803 0008479 292.0693 333.1983 15.73176102  1300,6727.9630000000025,91.535,355.533,344.124,0.0
53242.0,STARLINK-4056,PAYLOAD,2022-08-14 14:00:01,15.73232918,0.0008533999999999,53.2183,299.1831,295.2059,147.9283,0.00010566,0.00014274,0.0,0 STARLINK-4056,1 53242U 22086A   22226.58334491  .00014274  00000-0  10566-3 0  9994,2 53242  53.2183 299.1831 0008534 295.2059 147.9283 15.73232918  1304,6727.801,91.531,355.408,343.925,0.0
53242.0,STARLINK-4056,PAYLOAD,2022-08-14 22:00:00,15.73236839,0.0008516,53.2183,297.5319,294.1912,237.9329,-0.00024328,-0.00034768,0.0,0 STARLINK-4056,1 53242U 22086A   22226.91667824 -.00034768  00000-0 -24328-3 0  9993,2 53242  53.2183 297.5319 0008516 294.1912 237.9329 15.73236839  3997,6727.79,91.531,355.385,343.926,0.0
53242.0,STARLINK-4056,PAYLOAD,2022-08-15 14:00:01,15.7316643,0.0008535,53.2185,294.2345,296.308,53.6766,0.00038369,0.00053596,0.0,0 STARLINK-4056,1 53242U 22086A   22227.58334491  .00053596  00000-0  38369-3 0  9996,2 53242  53.2185 294.2345 0008535 296.3080  53.6766 15.73166430  1303,6727.991,91.535,355.598,344.11400000000015,0.0
53242.0,STARLINK-4056,PAYLOAD,2022-08-15 22:00:00,15.73199583,0.0008523,53.2182,292.5833,295.3583,143.5474,-0.00033821,-0.00047939,0.0,0 STARLINK-4056,1 53242U 22086A   22227.91667824 -.00047939  00000-0 -33821-3 0  9996,2 53242  53.2182 292.5833 0008523 295.3583 143.5474 15.73199583  1307,6727.896,91.533,355.496,344.027,0.0
53242.0,STARLINK-4056,PAYLOAD,2022-08-16 06:00:02,15.73183006,0.0008425,53.2182,290.9338,295.8987,231.9707,0.00019187,0.00026417,0.0,0 STARLINK-4056,1 53242U 22086A   22228.25002315  .00026417  00000-0  19187-3 0  9997,2 53242  53.2182 290.9338 0008425 295.8987 231.9707 15.73183006  4209,6727.944,91.534,355.477,344.14,0.0
53242.0,STARLINK-4056,PAYLOAD,2022-08-16 14:00:01,15.73177872,0.0008602,53.2179,289.2863,298.8231,317.909,0.00055581,0.0007819,0.0,0 STARLINK-4056,1 53242U 22086A   22228.58334491  .00078190  00000-0  55581-3 0  9999,2 53242  53.2179 289.2863 0008602 298.8231 317.9090 15.73177872  1303,6727.958000000001,91.534,355.611,344.036,0.0
53242.0,STARLINK-4056,PAYLOAD,2022-08-16 22:00:00,15.73259416,0.0008519,53.218,287.6349,297.9368,47.7361,-0.00049979,-0.00070536,0.0,0 STARLINK-4056,1 53242U 22086A   22228.91667824 -.00070536  00000-0 -49979-3 0  9997,2 53242  53.2180 287.6349 0008519 297.9368  47.7361 15.73259416  1308,6727.726,91.53,355.32199999999995,343.8590000000001,0.0
53242.0,STARLINK-4056,PAYLOAD,2022-08-17 14:00:01,15.7321458,0.0008581,53.2182,284.3375,300.4907,223.0866,-0.00015257,-0.00022052,0.0,0 STARLINK-4056,1 53242U 22086A   22229.58334491 -.00022052  00000-0 -15257-3 0  9994,2 53242  53.2182 284.3375 0008581 300.4907 223.0866 15.73214580  4418,6727.854,91.532,355.492,343.945,0.0
53242.0,STARLINK-4056,PAYLOAD,2022-08-18 08:00:01,15.73238733,0.0008506999999999,53.2178,280.6254,301.4641,152.2185,6.6265e-05,8.712e-05,0.0,0 STARLINK-4056,1 53242U 22086A   22230.33334491  .00008712  00000-0  66265-4 0  9990,2 53242  53.2178 280.6254 0008507 301.4641 152.2185 15.73238733  4538,6727.785,91.531,355.37300000000016,343.926,0.0
53242.0,STARLINK-4056,PAYLOAD,2022-08-18 14:00:01,15.73194943,0.0008539,53.2177,279.3892,301.5759,128.8346,0.00037313,0.00052159,0.0,0 STARLINK-4056,1 53242U 22086A   22230.58334491  .00052159  00000-0  37313-3 0  9992,2 53242  53.2177 279.3892 0008539 301.5759 128.8346 15.73194943  1300,6727.91,91.533,355.52,344.03,0.0
53242.0,STARLINK-4056,PAYLOAD,2022-08-18 22:00:00,15.73183153,0.0008481,53.2179,277.7377,300.2206,219.1503,0.00024672,0.00034183,0.0,0 STARLINK-4056,1 53242U 22086A   22230.91667824  .00034183  00000-0  24672-3 0  9999,2 53242  53.2179 277.7377 0008481 300.2206 219.1503 15.73183153  4629,6727.943,91.534,355.514,344.102,0.0
